{"type": "FeatureCollection", "features": [ {"type": "Feature", "properties": {"norad_id": 66654, "name": "JACK E", "group": "last-30-days", "lat": 73.79335284552752, "lon": -121.24927969075956, "alt_km": 591.8236368069074, "timestamp": "2025-12-05T07:38:17.629504+00:00", "meta": {"OBJECT_NAME": "JACK E", "OBJECT_ID": "2025-274E", "EPOCH": "2025-12-04T16:48:49.800096", "MEAN_MOTION": 14.92014463, "ECCENTRICITY": 0.0011819, "INCLINATION": 97.739, "RA_OF_ASC_NODE": 266.041, "ARG_OF_PERICENTER": 286.2299, "MEAN_ANOMALY": 73.7619, "EPHEMERIS_TYPE": 0, "CLASSIFICATION_TYPE": "U", "NORAD_CAT_ID": 66654, "ELEMENT_SET_NO": 999, "REV_AT_EPOCH": 120, "BSTAR": 0.00063009, "MEAN_MOTION_DOT": 6.344e-05, "MEAN_MOTION_DDOT": 0}, "tle": {"line1": "1 66654U 25274E   25338.70057639  .00006344  00000+0  63009-3 0  9992", "line2": "2 66654  97.7390 266.0410 0011819 286.2299  73.7619 14.92014463  1201"}}, "geometry": {"type": "Point", "coordinates": [-121.24927969075956, 73.79335284552752]}}, {"type": "Feature", "properties": {"norad_id": 66655, "name": "2025-274F", "group": "last-30-days", "lat": 77.88078886961587, "lon": -132.62881967623574, "alt_km": 586.9911414151702, "timestamp": "2025-12-05T07:38:17.629516+00:00", "meta": {"OBJECT_NAME": "2025-274F", "OBJECT_ID": "2025-274F", "EPOCH": "2025-12-04T05:31:45.048000", "MEAN_MOTION": 14.92233374, "ECCENTRICITY": 0.0007809, "INCLINATION": 97.7363, "RA_OF_ASC_NODE": 265.5807, "ARG_OF_PERICENTER": 316.271, "MEAN_ANOMALY": 43.7889, "EPHEMERIS_TYPE": 0, "CLASSIFICATION_TYPE": "U", "NORAD_CAT_ID": 66655, "ELEMENT_SET_NO": 999, "REV_AT_EPOCH": 113, "BSTAR": 0.00065086, "MEAN_MOTION_DOT": 6.587e-05, "MEAN_MOTION_DDOT": 0}, "tle": {"line1": "1 66655U 25274F   25338.23038250  .00006587  00000+0  65086-3 0  9995", "line2": "2 66655  97.7363 265.5807 0007809 316.2710  43.7889 14.92233374  1134"}}, "geometry": {"type": "Point", "coordinates": [-132.62881967623574, 77.88078886961587]}}, {"type": "Feature", "properties": {"norad_id": 66656, "name": "2025-274G", "group": "last-30-days", "lat": 78.38271348614838, "lon": -134.7618748987479, "alt_km": 591.641598083017, "timestamp": "2025-12-05T07:38:17.629526+00:00", "meta": {"OBJECT_NAME": "2025-274G", "OBJECT_ID": "2025-274G", "EPOCH": "2025-12-04T16:47:26.365344", "MEAN_MOTION": 14.92198811, "ECCENTRICITY": 0.001244, "INCLINATION": 97.7388, "RA_OF_ASC_NODE": 266.0422, "ARG_OF_PERICENTER": 287.6885, "MEAN_ANOMALY": 72.2976, "EPHEMERIS_TYPE": 0, "CLASSIFICATION_TYPE": "U", "NORAD_CAT_ID": 66656, "ELEMENT_SET_NO": 999, "REV_AT_EPOCH": 120, "BSTAR": 0.00072902, "MEAN_MOTION_DOT": 7.385e-05, "MEAN_MOTION_DDOT": 0}, "tle": {"line1": "1 66656U 25274G   25338.69961071  .00007385  00000+0  72902-3 0  9994", "line2": "2 66656  97.7388 266.0422 0012440 287.6885  72.2976 14.92198811  1200"}}, "geometry": {"type": "Point", "coordinates": [-134.7618748987479, 78.38271348614838]}}, {"type": "Feature", "properties": {"norad_id": 66657, "name": "SPIRONE", "group": "last-30-days", "lat": 81.66070179115586, "lon": -161.4205298337472, "alt_km": 589.1178880542038, "timestamp": "2025-12-05T07:38:17.629536+00:00", "meta": {"OBJECT_NAME": "SPIRONE", "OBJECT_ID": "2025-274H", "EPOCH": "2025-12-04T05:30:12.998304", "MEAN_MOTION": 14.92372167, "ECCENTRICITY": 0.0011087, "INCLINATION": 97.7384, "RA_OF_ASC_NODE": 265.582, "ARG_OF_PERICENTER": 308.6851, "MEAN_ANOMALY": 51.3376, "EPHEMERIS_TYPE": 0, "CLASSIFICATION_TYPE": "U", "NORAD_CAT_ID": 66657, "ELEMENT_SET_NO": 999, "REV_AT_EPOCH": 113, "BSTAR": 0.00070024, "MEAN_MOTION_DOT": 7.12e-05, "MEAN_MOTION_DDOT": 0}, "tle": {"line1": "1 66657U 25274H   25338.22931711  .00007120  00000+0  70024-3 0  9992", "line2": "2 66657  97.7384 265.5820 0011087 308.6851  51.3376 14.92372167  1138"}}, "geometry": {"type": "Point", "coordinates": [-161.4205298337472, 81.66070179115586]}}, {"type": "Feature", "properties": {"norad_id": 66658, "name": "2025-274J", "group": "last-30-days", "lat": 81.90678186844347, "lon": 159.64759514717167, "alt_km": 589.0802970260447, "timestamp": "2025-12-05T07:38:17.629546+00:00", "meta": {"OBJECT_NAME": "2025-274J", "OBJECT_ID": "2025-274J", "EPOCH": "2025-12-04T07:05:28.546656", "MEAN_MOTION": 14.92547645, "ECCENTRICITY": 0.001164, "INCLINATION": 97.7385, "RA_OF_ASC_NODE": 265.6489, "ARG_OF_PERICENTER": 311.4389, "MEAN_ANOMALY": 48.5829, "EPHEMERIS_TYPE": 0, "CLASSIFICATION_TYPE": "U", "NORAD_CAT_ID": 66658, "ELEMENT_SET_NO": 999, "REV_AT_EPOCH": 114, "BSTAR": 0.0006893, "MEAN_MOTION_DOT": 7.04e-05, "MEAN_MOTION_DDOT": 0}, "tle": {"line1": "1 66658U 25274J   25338.29546929  .00007040  00000+0  68930-3 0  9997", "line2": "2 66658  97.7385 265.6489 0011640 311.4389  48.5829 14.92547645  1142"}}, "geometry": {"type": "Point", "coordinates": [159.64759514717167, 81.90678186844347]}}, {"type": "Feature", "properties": {"norad_id": 66659, "name": "JACK K", "group": "last-30-days", "lat": 78.78529125316633, "lon": 129.9589110763651, "alt_km": 589.4235123484095, "timestamp": "2025-12-05T07:38:17.629556+00:00", "meta": {"OBJECT_NAME": "JACK K", "OBJECT_ID": "2025-274K", "EPOCH": "2025-12-04T08:40:38.250048", "MEAN_MOTION": 14.92734551, "ECCENTRICITY": 0.0012354, "INCLINATION": 97.7386, "RA_OF_ASC_NODE": 265.7163, "ARG_OF_PERICENTER": 312.2173, "MEAN_ANOMALY": 47.7997, "EPHEMERIS_TYPE": 0, "CLASSIFICATION_TYPE": "U", "NORAD_CAT_ID": 66659, "ELEMENT_SET_NO": 999, "REV_AT_EPOCH": 115, "BSTAR": 0.00069302, "MEAN_MOTION_DOT": 7.113e-05, "MEAN_MOTION_DDOT": 0}, "tle": {"line1": "1 66659U 25274K   25338.36155382  .00007113  00000+0  69302-3 0  9990", "line2": "2 66659  97.7386 265.7163 0012354 312.2173  47.7997 14.92734551  1159"}}, "geometry": {"type": "Point", "coordinates": [129.9589110763651, 78.78529125316633]}}, {"type": "Feature", "properties": {"norad_id": 66660, "name": "K-HERO", "group": "last-30-days", "lat": 75.09018629314272, "lon": 117.37332563111148, "alt_km": 589.8758508258024, "timestamp": "2025-12-05T07:38:17.629565+00:00", "meta": {"OBJECT_NAME": "K-HERO", "OBJECT_ID": "2025-274L", "EPOCH": "2025-12-04T16:42:06.852096", "MEAN_MOTION": 14.9288769, "ECCENTRICITY": 0.0012996, "INCLINATION": 97.7392, "RA_OF_ASC_NODE": 266.0473, "ARG_OF_PERICENTER": 311.4036, "MEAN_ANOMALY": 48.6065, "EPHEMERIS_TYPE": 0, "CLASSIFICATION_TYPE": "U", "NORAD_CAT_ID": 66660, "ELEMENT_SET_NO": 999, "REV_AT_EPOCH": 120, "BSTAR": 0.00063713, "MEAN_MOTION_DOT": 6.561e-05, "MEAN_MOTION_DDOT": 0}, "tle": {"line1": "1 66660U 25274L   25338.69591264  .00006561  00000+0  63713-3 0  9997", "line2": "2 66660  97.7392 266.0473 0012996 311.4036  48.6065 14.92887690  1202"}}, "geometry": {"type": "Point", "coordinates": [117.37332563111148, 75.09018629314272]}}, {"type": "Feature", "properties": {"norad_id": 66661, "name": "SNUGLITE-III", "group": "last-30-days", "lat": 70.8706648192081, "lon": 109.74309742378378, "alt_km": 590.4032750894139, "timestamp": "2025-12-05T07:38:17.629577+00:00", "meta": {"OBJECT_NAME": "SNUGLITE-III", "OBJECT_ID": "2025-274M", "EPOCH": "2025-12-04T13:27:54.573120", "MEAN_MOTION": 14.93034067, "ECCENTRICITY": 0.0013676, "INCLINATION": 97.7386, "RA_OF_ASC_NODE": 265.9163, "ARG_OF_PERICENTER": 312.7426, "MEAN_ANOMALY": 47.2642, "EPHEMERIS_TYPE": 0, "CLASSIFICATION_TYPE": "U", "NORAD_CAT_ID": 66661, "ELEMENT_SET_NO": 999, "REV_AT_EPOCH": 118, "BSTAR": 0.00052492, "MEAN_MOTION_DOT": 5.415e-05, "MEAN_MOTION_DDOT": 0}, "tle": {"line1": "1 66661U 25274M   25338.56104830  .00005415  00000+0  52492-3 0  9992", "line2": "2 66661  97.7386 265.9163 0013676 312.7426  47.2642 14.93034067  1189"}}, "geometry": {"type": "Point", "coordinates": [109.74309742378378, 70.8706648192081]}}, {"type": "Feature", "properties": {"norad_id": 66662, "name": "2025-274N", "group": "last-30-days", "lat": 68.99588856460917, "lon": 107.40496287892938, "alt_km": 590.8279131842, "timestamp": "2025-12-05T07:38:17.629589+00:00", "meta": {"OBJECT_NAME": "2025-274N", "OBJECT_ID": "2025-274N", "EPOCH": "2025-12-04T08:37:53.431680", "MEAN_MOTION": 14.93089567, "ECCENTRICITY": 0.00141, "INCLINATION": 97.7387, "RA_OF_ASC_NODE": 265.7189, "ARG_OF_PERICENTER": 312.6803, "MEAN_ANOMALY": 47.3228, "EPHEMERIS_TYPE": 0, "CLASSIFICATION_TYPE": "U", "NORAD_CAT_ID": 66662, "ELEMENT_SET_NO": 999, "REV_AT_EPOCH": 115, "BSTAR": 0.00038796, "MEAN_MOTION_DOT": 3.993e-05, "MEAN_MOTION_DDOT": 0}, "tle": {"line1": "1 66662U 25274N   25338.35964620  .00003993  00000+0  38796-3 0  9991", "line2": "2 66662  97.7387 265.7189 0014100 312.6803  47.3228 14.93089567  1151"}}, "geometry": {"type": "Point", "coordinates": [107.40496287892938, 68.99588856460917]}}, {"type": "Feature", "properties": {"norad_id": 66663, "name": "KSLV-II R/B", "group": "last-30-days", "lat": -60.5398687326118, "lon": 72.79576598463174, "alt_km": 589.8281909977977, "timestamp": "2025-12-05T07:38:17.629601+00:00", "meta": {"OBJECT_NAME": "KSLV-II R/B", "OBJECT_ID": "2025-274P", "EPOCH": "2025-12-04T16:07:27.967008", "MEAN_MOTION": 14.9720863, "ECCENTRICITY": 0.0046484, "INCLINATION": 97.7407, "RA_OF_ASC_NODE": 266.0899, "ARG_OF_PERICENTER": 346.5952, "MEAN_ANOMALY": 13.4031, "EPHEMERIS_TYPE": 0, "CLASSIFICATION_TYPE": "U", "NORAD_CAT_ID": 66663, "ELEMENT_SET_NO": 999, "REV_AT_EPOCH": 120, "BSTAR": 4.029e-05, "MEAN_MOTION_DOT": 4.14e-06, "MEAN_MOTION_DDOT": 0}, "tle": {"line1": "1 66663U 25274P   25338.67185147  .00000414  00000+0  40290-4 0  9994", "line2": "2 66663  97.7407 266.0899 0046484 346.5952  13.4031 14.97208630  1208"}}, "geometry": {"type": "Point", "coordinates": [72.79576598463174, -60.5398687326118]}}]}